STARLINK-4574           
1 53733U 22107AK  26005.65095016  .00000408  00000+0  43715-4 0  9993
2 53733  53.2188 177.3411 0001380  93.3174 266.7976 15.08837710185066
STARLINK-4616           
1 53734U 22107AL  26005.63620978  .00000252  00000+0  33912-4 0  9998
2 53734  53.2166 177.2527 0001425  89.6019 270.5137 15.08836676185068
STARLINK-4618           
1 53735U 22107AM  26005.48070505 -.00002138  00000+0 -11631-3 0  9997
2 53735  53.2166 187.6880 0001234 104.2506 255.8623 15.08836140184903
STARLINK-4652           
1 53736U 22107AN  26005.64726433  .00000994  00000+0  80560-4 0  9998
2 53736  53.2173 177.3191 0001266  90.9402 269.1735 15.08837869185063
STARLINK-4646           
1 53737U 22107AP  26005.66668981  .00302626  00000+0  21432-2 0  9992
2 53737  53.1913 131.4972 0006236 332.2496 319.8225 15.72525113  5863
STARLINK-4662           
1 53738U 22107AQ  26004.74838016 -.00001178  00000+0 -55916-4 0  9995
2 53738  53.2194 190.9376 0001657  99.6663 260.4516 15.08840106184791
STARLINK-4607           
1 53740U 22107AS  26004.82566965  .00000078  00000+0  23021-4 0  9996
2 53740  53.2178 190.7114 0001390  86.9707 273.1444 15.08836464184957
STARLINK-4637           
1 53742U 22107AU  26005.49175129  .00000153  00000+0  27723-4 0  9997
2 53742  53.2179 187.7616 0001450  88.4858 271.6301 15.08840390185054
STARLINK-4645           
1 53743U 22107AV  26005.63895404  .00000643  00000+0  58479-4 0  9995
2 53743  53.2171 187.2548 0001292  96.2897 263.8243 15.08843761185075
STARLINK-4670           
1 53744U 22107AW  26005.66099525  .00000321  00000+0  38285-4 0  9995
2 53744  53.2163 186.6893 0001272  93.5031 266.6107 15.08836482185084
STARLINK-4656           
1 53745U 22107AX  26005.64264999 -.00002113  00000+0 -11465-3 0  9996
2 53745  53.2153 187.2804 0001282  98.0264 262.0874 15.08849579185073
STARLINK-4589           
1 53746U 22107AY  26005.63528284  .00000041  00000+0  20687-4 0  9999
2 53746  53.2182 187.2335 0001710  93.7822 266.3365 15.08839138185075
STARLINK-4612           
1 53750U 22107BC  26005.65002212  .00000357  00000+0  40547-4 0  9991
2 53750  53.2173 187.3247 0001405  89.6181 270.4972 15.08838499185086
STARLINK-4718           
1 53773U 22111A   26005.27647936 -.00000343  00000+0 -34713-5 0  9993
2 53773  53.2176 208.7197 0001342  87.3824 272.7321 15.08831332184277
STARLINK-4719           
1 53774U 22111B   26005.53773351  .00003137  00000+0  21503-3 0  9997
2 53774  53.2173 207.5034 0000763 111.8280 248.2793 15.08850469184179
STARLINK-4722           
1 53775U 22111C   26004.77327474 -.00000426  00000+0 -86697-5 0  9991
2 53775  53.2171 201.2860 0001357  85.9333 274.1815 15.08832365184040
STARLINK-4664           
1 53777U 22111E   26005.56077779  .00000393  00000+0  42776-4 0  9991
2 53777  53.2173 197.6699 0001384  91.5804 268.5347 15.08836022184162
STARLINK-4709           
1 53778U 22111F   26005.52162836  .00000565  00000+0  53603-4 0  9999
2 53778  53.2181 202.4227 0001515  90.3866 269.7300 15.08837661184099
STARLINK-4706           
1 53779U 22111G   26005.55709480  .00000157  00000+0  27944-4 0  9991
2 53779  53.2177 197.6457 0001246  96.1726 263.9409 15.08836185184169
STARLINK-4678           
1 53780U 22111H   26004.76958338  .00000124  00000+0  25880-4 0  9994
2 53780  53.2170 201.2629 0001285  88.0898 272.0241 15.08834673184042
STARLINK-4462           
1 53781U 22111J   26005.54603907  .00001295  00000+0  99454-4 0  9999
2 53781  53.2175 197.5809 0001283  94.1699 265.9440 15.08830202184169
STARLINK-4679           
1 53782U 22111K   26005.55341219 -.00000972  00000+0 -43006-4 0  9991
2 53782  53.2171 197.6257 0001127  90.9132 269.1990 15.08841281184162
STARLINK-4536           
1 53783U 22111L   26005.53867035  .00000647  00000+0  58745-4 0  9992
2 53783  53.2151 197.5368 0001674 100.4786 259.6395 15.08848366184166
STARLINK-4687           
1 53784U 22111M   26005.54972125  .00000013  00000+0  18901-4 0  9998
2 53784  53.2166 197.5993 0001332  91.1156 268.9988 15.08837553184162
STARLINK-4743           
1 53787U 22111Q   26005.26634030  .00005246  00000+0  34745-3 0  9996
2 53787  53.2140 198.6818 0001527 100.7673 259.3491 15.08840343184122
STARLINK-4666           
1 53789U 22111S   26005.52024953  .00013774  00000+0  88090-3 0  9991
2 53789  53.2158 197.4259 0001826  86.8784 273.2417 15.08877864184152
STARLINK-4734           
1 53790U 22111T   26005.53498735  .00001639  00000+0  12102-3 0  9995
2 53790  53.2172 197.5146 0001369  89.6583 270.4566 15.08839270184160
STARLINK-4739           
1 53792U 22111V   26005.24896034  .00001755  00000+0  12830-3 0  9996
2 53792  53.2175 199.2698 0001313  82.8816 277.2325 15.08851392184100
STARLINK-4728           
1 53793U 22111W   26005.52760681  .00001061  00000+0  84684-4 0  9993
2 53793  53.2168 197.4669 0000896  96.1553 263.9541 15.08846845184156
STARLINK-4730           
1 53794U 22111X   26005.53226093  .00006191  00000+0  40701-3 0  9999
2 53794  53.2167 197.4963 0001168  97.6811 262.4314 15.08812672184152
STARLINK-4742           
1 53795U 22111Y   26005.25159967  .00000438  00000+0  45626-4 0  9994
2 53795  53.2177 198.5910 0001349  87.4318 272.6829 15.08840263184115
STARLINK-4723           
1 53797U 22111AA  26005.50546382  .00005007  00000+0  33213-3 0  9990
2 53797  53.2182 197.3289 0000996 121.4796 238.6293 15.08874453184143
STARLINK-4712           
1 53798U 22111AB  26005.50919398  .00000357  00000+0  40508-4 0  9991
2 53798  53.2177 197.3520 0001527  88.9569 271.1598 15.08834284184140
STARLINK-4710           
1 53799U 22111AC  26004.82296924  .00000964  00000+0  78650-4 0  9992
2 53799  53.2173 190.9019 0001419  91.6500 268.4655 15.08834304184174
STARLINK-4720           
1 53800U 22111AD  26005.48311616  .00032520  00000+0  62700-3 0  9995
2 53800  53.2121 182.2877 0000603   2.7588 357.3424 15.47579029184354
STARLINK-4715           
1 53801U 22111AE  26005.52116932  .00000390  00000+0  42575-4 0  9994
2 53801  53.2166 187.4406 0001258  85.5437 274.5699 15.08838675184286
STARLINK-4726           
1 53802U 22111AF  26004.80358738 -.00000624  00000+0 -21107-4 0  9997
2 53802  53.2178 190.7811 0001442  92.5937 267.5220 15.08835203184179
STARLINK-4727           
1 53803U 22111AG  26005.61274073  .00000587  00000+0  54942-4 0  9996
2 53803  53.2169 172.3298 0001297  85.4267 274.6873 15.08840175184504
STARLINK-4729           
1 53804U 22111AH  26005.45819186  .00000520  00000+0  50738-4 0  9995
2 53804  53.2167 182.7621 0001347  87.8871 272.2275 15.08833721184342
STARLINK-4763           
1 53805U 22111AJ  26005.62106855  .00001086  00000+0  86327-4 0  9998
2 53805  53.2168 172.3790 0001310  86.6787 273.4355 15.08839052184502
STARLINK-4768           
1 53806U 22111AK  26005.59431883  .00000215  00000+0  31576-4 0  9996
2 53806  53.2164 172.2118 0001515  85.6552 274.4613 15.08842571184506
STARLINK-4738           
1 53819U 22114B   26005.63160160 -.00001664  00000+0 -86539-4 0  9995
2 53819  53.2162 227.0701 0001136  78.2959 281.8161 15.08826868183312
STARLINK-4758           
1 53820U 22114C   26005.33355226  .00001532  00000+0  11433-3 0  9995
2 53820  53.2163 228.7592 0001464  82.7192 277.3966 15.08844453183261
STARLINK-4748           
1 53823U 22114F   26005.63757774  .00000212  00000+0  31388-4 0  9991
2 53823  53.2161 182.1554 0001371  89.2223 270.8927 15.08836414183945
STARLINK-4757           
1 53824U 22114G   26005.32241506  .00000541  00000+0  52082-4 0  9998
2 53824  53.2174 227.9973 0001391  88.4300 271.6851 15.08841078183185
STARLINK-4751           
1 53825U 22114H   26005.32618457  .00000268  00000+0  34905-4 0  9992
2 53825  53.2181 228.7156 0001306  91.6614 268.4528 15.08833052183263
STARLINK-4756           
1 53826U 22114J   26005.30775691 -.00000039  00000+0  15655-4 0  9993
2 53826  53.2175 228.5998 0001375  89.1744 270.9405 15.08833985183268
STARLINK-4764           
1 53827U 22114K   26005.31880899  .00000215  00000+0  31596-4 0  9999
2 53827  53.2165 228.6685 0001415  86.5368 273.5786 15.08836105183268
STARLINK-4760           
1 53828U 22114L   26005.30407181 -.00001481  00000+0 -74960-4 0  9998
2 53828  53.2175 228.5770 0001661  91.4138 268.7044 15.08841065183261
STARLINK-4759           
1 53829U 22114M   26005.64632704  .00000498  00000+0  49406-4 0  9999
2 53829  53.2162 227.1587 0001299  91.9731 268.1410 15.08836794183310
STARLINK-4761           
1 53830U 22114N   26004.83302060  .00000562  00000+0  53368-4 0  9994
2 53830  53.2157 230.6101 0001338  91.2477 268.8669 15.08842036183196
STARLINK-4649           
1 53831U 22114P   26005.31143755  .00000031  00000+0  20018-4 0  9990
2 53831  53.2176 228.6229 0001446  86.4618 273.6539 15.08836009183260
STARLINK-4747           
1 53832U 22114Q   26004.82564956  .00000299  00000+0  36863-4 0  9997
2 53832  53.2168 230.5644 0001538  88.8209 271.2960 15.08838806183190
STARLINK-4771           
1 53833U 22114R   26004.97013951  .00000633  00000+0  57853-4 0  9992
2 53833  53.2163 230.0436 0001391  88.4967 271.6185 15.08839645183212
STARLINK-4737           
1 53834U 22114S   26005.61314207  .00004250  00000+0  28474-3 0  9998
2 53834  53.2175 226.9502 0001742  43.6973 316.4157 15.08868113183314
STARLINK-4783           
1 53835U 22114T   26005.62421432  .00000811  00000+0  69018-4 0  9998
2 53835  53.2161 227.0173 0001308  92.3164 267.7978 15.08838444183310
STARLINK-4778           
1 53836U 22114U   26004.99958288  .00000373  00000+0  41539-4 0  9993
2 53836  53.2163 220.2393 0001484  89.6459 270.4703 15.08840867183356
STARLINK-4776           
1 53837U 22114V   26004.88820321  .00001560  00000+0  11610-3 0  9993
2 53837  53.2169 230.2460 0001253  85.3814 274.7321 15.08841716183202
STARLINK-4773           
1 53838U 22114W   26005.59205728 -.00001801  00000+0 -95124-4 0  9994
2 53838  53.2172 217.5450 0001367  82.5461 277.5687 15.08832366183440
